CCSDS_OMM_VERS = 2.0
CREATION_DATE  = 
ORIGINATOR     = 

OBJECT_NAME    = UNKNOWN
OBJECT_ID      = 
CENTER_NAME    = EARTH
REF_FRAME      = TEME
TIME_SYSTEM    = UTC
MEAN_ELEMENT_THEORY = SGP/SGP4

EPOCH          = 2025-11-11T14:10:46.790976
MEAN_MOTION    = 13.15586012
ECCENTRICITY   = .0458699
INCLINATION    = 66.9376
RA_OF_ASC_NODE = 260.6610
ARG_OF_PERICENTER = 185.8238
MEAN_ANOMALY   = 173.7362

EPHEMERIS_TYPE = 0
CLASSIFICATION_TYPE = U
NORAD_CAT_ID   = 82363
ELEMENT_SET_NO = 999
REV_AT_EPOCH   = 28616
BSTAR          = .50726E-3
MEAN_MOTION_DOT = .265E-5
MEAN_MOTION_DDOT = 0

CCSDS_OMM_VERS = 2.0
CREATION_DATE  = 
ORIGINATOR     = 

OBJECT_NAME    = UNKNOWN
OBJECT_ID      = 
CENTER_NAME    = EARTH
REF_FRAME      = TEME
TIME_SYSTEM    = UTC
MEAN_ELEMENT_THEORY = SGP/SGP4

EPOCH          = 2025-11-10T18:12:19.564128
MEAN_MOTION    = 13.98137330
ECCENTRICITY   = .0084546
INCLINATION    = 98.9009
RA_OF_ASC_NODE = 330.7947
ARG_OF_PERICENTER = 67.5680
MEAN_ANOMALY   = 293.4412

EPHEMERIS_TYPE = 0
CLASSIFICATION_TYPE = U
NORAD_CAT_ID   = 82369
ELEMENT_SET_NO = 999
REV_AT_EPOCH   = 55270
BSTAR          = .47137E-3
MEAN_MOTION_DOT = .649E-5
MEAN_MOTION_DDOT = 0

CCSDS_OMM_VERS = 2.0
CREATION_DATE  = 
ORIGINATOR     = 

OBJECT_NAME    = UNKNOWN
OBJECT_ID      = 
CENTER_NAME    = EARTH
REF_FRAME      = TEME
TIME_SYSTEM    = UTC
MEAN_ELEMENT_THEORY = SGP/SGP4

EPOCH          = 2025-11-09T02:07:45.054624
MEAN_MOTION    = 14.78421469
ECCENTRICITY   = .0008157
INCLINATION    = 98.3965
RA_OF_ASC_NODE = 176.3420
ARG_OF_PERICENTER = 264.0038
MEAN_ANOMALY   = 96.0242

EPHEMERIS_TYPE = 0
CLASSIFICATION_TYPE = U
NORAD_CAT_ID   = 82381
ELEMENT_SET_NO = 999
REV_AT_EPOCH   = 50583
BSTAR          = .44019E-2
MEAN_MOTION_DOT = .32182E-3
MEAN_MOTION_DDOT = 0

CCSDS_OMM_VERS = 2.0
CREATION_DATE  = 
ORIGINATOR     = 

OBJECT_NAME    = UNKNOWN
OBJECT_ID      = 
CENTER_NAME    = EARTH
REF_FRAME      = TEME
TIME_SYSTEM    = UTC
MEAN_ELEMENT_THEORY = SGP/SGP4

EPOCH          = 2025-11-11T00:24:12.379680
MEAN_MOTION    = 15.02916992
ECCENTRICITY   = .0005963
INCLINATION    = 86.6661
RA_OF_ASC_NODE = 169.2941
ARG_OF_PERICENTER = 287.0820
MEAN_ANOMALY   = 72.9761

EPHEMERIS_TYPE = 0
CLASSIFICATION_TYPE = U
NORAD_CAT_ID   = 82402
ELEMENT_SET_NO = 999
REV_AT_EPOCH   = 44970
BSTAR          = .61673E-3
MEAN_MOTION_DOT = .831E-4
MEAN_MOTION_DDOT = 0

CCSDS_OMM_VERS = 2.0
CREATION_DATE  = 
ORIGINATOR     = 

OBJECT_NAME    = UNKNOWN
OBJECT_ID      = 
CENTER_NAME    = EARTH
REF_FRAME      = TEME
TIME_SYSTEM    = UTC
MEAN_ELEMENT_THEORY = SGP/SGP4

EPOCH          = 2025-11-10T23:16:33.976416
MEAN_MOTION    = 14.58361465
ECCENTRICITY   = .0057033
INCLINATION    = 74.0095
RA_OF_ASC_NODE = 41.1747
ARG_OF_PERICENTER = 214.9339
MEAN_ANOMALY   = 144.8079

EPHEMERIS_TYPE = 0
CLASSIFICATION_TYPE = U
NORAD_CAT_ID   = 82432
ELEMENT_SET_NO = 999
REV_AT_EPOCH   = 47827
BSTAR          = .79588E-3
MEAN_MOTION_DOT = .374E-4
MEAN_MOTION_DDOT = 0

CCSDS_OMM_VERS = 2.0
CREATION_DATE  = 
ORIGINATOR     = 

OBJECT_NAME    = UNKNOWN
OBJECT_ID      = 
CENTER_NAME    = EARTH
REF_FRAME      = TEME
TIME_SYSTEM    = UTC
MEAN_ELEMENT_THEORY = SGP/SGP4

EPOCH          = 2025-11-09T11:22:01.524864
MEAN_MOTION    = 15.03093578
ECCENTRICITY   = .0011099
INCLINATION    = 85.8744
RA_OF_ASC_NODE = 217.0877
ARG_OF_PERICENTER = 35.1006
MEAN_ANOMALY   = 325.0956

EPHEMERIS_TYPE = 0
CLASSIFICATION_TYPE = U
NORAD_CAT_ID   = 82448
ELEMENT_SET_NO = 999
REV_AT_EPOCH   = 43204
BSTAR          = .74373E-3
MEAN_MOTION_DOT = .10074E-3
MEAN_MOTION_DDOT = 0

CCSDS_OMM_VERS = 2.0
CREATION_DATE  = 
ORIGINATOR     = 

OBJECT_NAME    = UNKNOWN
OBJECT_ID      = 
CENTER_NAME    = EARTH
REF_FRAME      = TEME
TIME_SYSTEM    = UTC
MEAN_ELEMENT_THEORY = SGP/SGP4

EPOCH          = 2025-11-11T02:55:22.135008
MEAN_MOTION    = 12.39699742
ECCENTRICITY   = .0093633
INCLINATION    = 102.1716
RA_OF_ASC_NODE = 271.5187
ARG_OF_PERICENTER = 265.7367
MEAN_ANOMALY   = 93.2991

EPHEMERIS_TYPE = 0
CLASSIFICATION_TYPE = U
NORAD_CAT_ID   = 82453
ELEMENT_SET_NO = 999
REV_AT_EPOCH   = 54214
BSTAR          = .4497E-3
MEAN_MOTION_DOT = .15E-6
MEAN_MOTION_DDOT = 0

CCSDS_OMM_VERS = 2.0
CREATION_DATE  = 
ORIGINATOR     = 

OBJECT_NAME    = UNKNOWN
OBJECT_ID      = 
CENTER_NAME    = EARTH
REF_FRAME      = TEME
TIME_SYSTEM    = UTC
MEAN_ELEMENT_THEORY = SGP/SGP4

EPOCH          = 2025-10-24T18:33:12.902400
MEAN_MOTION    = 14.22335814
ECCENTRICITY   = .0044906
INCLINATION    = 66.5148
RA_OF_ASC_NODE = 311.0021
ARG_OF_PERICENTER = 40.7381
MEAN_ANOMALY   = 319.7055

EPHEMERIS_TYPE = 0
CLASSIFICATION_TYPE = U
NORAD_CAT_ID   = 82458
ELEMENT_SET_NO = 999
REV_AT_EPOCH   = 60307
BSTAR          = .17103E-2
MEAN_MOTION_DOT = .3765E-4
MEAN_MOTION_DDOT = 0

CCSDS_OMM_VERS = 2.0
CREATION_DATE  = 
ORIGINATOR     = 

OBJECT_NAME    = UNKNOWN
OBJECT_ID      = 
CENTER_NAME    = EARTH
REF_FRAME      = TEME
TIME_SYSTEM    = UTC
MEAN_ELEMENT_THEORY = SGP/SGP4

EPOCH          = 2025-11-11T00:14:21.733728
MEAN_MOTION    = 13.55773748
ECCENTRICITY   = .0043788
INCLINATION    = 99.3593
RA_OF_ASC_NODE = 338.2628
ARG_OF_PERICENTER = 275.7280
MEAN_ANOMALY   = 83.8867

EPHEMERIS_TYPE = 0
CLASSIFICATION_TYPE = U
NORAD_CAT_ID   = 82484
ELEMENT_SET_NO = 999
REV_AT_EPOCH   = 58633
BSTAR          = .38728E-3
MEAN_MOTION_DOT = .23E-5
MEAN_MOTION_DDOT = 0

CCSDS_OMM_VERS = 2.0
CREATION_DATE  = 
ORIGINATOR     = 

OBJECT_NAME    = UNKNOWN
OBJECT_ID      = 
CENTER_NAME    = EARTH
REF_FRAME      = TEME
TIME_SYSTEM    = UTC
MEAN_ELEMENT_THEORY = SGP/SGP4

EPOCH          = 2025-11-11T14:41:28.261824
MEAN_MOTION    = 14.84271520
ECCENTRICITY   = .000491
INCLINATION    = 74.0087
RA_OF_ASC_NODE = 83.7467
ARG_OF_PERICENTER = 232.4777
MEAN_ANOMALY   = 127.5956

EPHEMERIS_TYPE = 0
CLASSIFICATION_TYPE = U
NORAD_CAT_ID   = 82494
ELEMENT_SET_NO = 999
REV_AT_EPOCH   = 8034
BSTAR          = .39962E-2
MEAN_MOTION_DOT = .33635E-3
MEAN_MOTION_DDOT = 0

CCSDS_OMM_VERS = 2.0
CREATION_DATE  = 
ORIGINATOR     = 

OBJECT_NAME    = UNKNOWN
OBJECT_ID      = 
CENTER_NAME    = EARTH
REF_FRAME      = TEME
TIME_SYSTEM    = UTC
MEAN_ELEMENT_THEORY = SGP/SGP4

EPOCH          = 2025-11-09T14:44:55.288320
MEAN_MOTION    = 14.18084600
ECCENTRICITY   = .011891
INCLINATION    = 70.9661
RA_OF_ASC_NODE = 73.9369
ARG_OF_PERICENTER = 167.3552
MEAN_ANOMALY   = 193.0603

EPHEMERIS_TYPE = 0
CLASSIFICATION_TYPE = U
NORAD_CAT_ID   = 82500
ELEMENT_SET_NO = 999
REV_AT_EPOCH   = 61425
BSTAR          = .34533E-2
MEAN_MOTION_DOT = .7559E-4
MEAN_MOTION_DDOT = 0

CCSDS_OMM_VERS = 2.0
CREATION_DATE  = 
ORIGINATOR     = 

OBJECT_NAME    = UNKNOWN
OBJECT_ID      = 
CENTER_NAME    = EARTH
REF_FRAME      = TEME
TIME_SYSTEM    = UTC
MEAN_ELEMENT_THEORY = SGP/SGP4

EPOCH          = 2025-11-09T02:03:03.502080
MEAN_MOTION    = 14.33981873
ECCENTRICITY   = .0135661
INCLINATION    = 73.2821
RA_OF_ASC_NODE = 246.2066
ARG_OF_PERICENTER = 13.8380
MEAN_ANOMALY   = 1.2608

EPHEMERIS_TYPE = 0
CLASSIFICATION_TYPE = U
NORAD_CAT_ID   = 82524
ELEMENT_SET_NO = 999
REV_AT_EPOCH   = 57221
BSTAR          = .4565E-2
MEAN_MOTION_DOT = .14123E-3
MEAN_MOTION_DDOT = 0

