UNKNOWN                 
1 82363U          25315.59081934  .00000265  00000+0  50726-3 0  9992
2 82363  66.9376 260.6610 0458699 185.8238 173.7362 13.15586012286162
UNKNOWN                 
1 82369U          25314.75855977  .00000649  00000+0  47137-3 0  9999
2 82369  98.9009 330.7947 0084546  67.5680 293.4412 13.98137330552709
UNKNOWN                 
1 82381U          25313.08871591  .00032182  00000+0  44019-2 0  9990
2 82381  98.3965 176.3420 0008157 264.0038  96.0242 14.78421469505831
UNKNOWN                 
1 82402U          25315.01680995  .00008310  00000+0  61673-3 0  9997
2 82402  86.6661 169.2941 0005963 287.0820  72.9761 15.02916992449703
UNKNOWN                 
1 82432U          25314.96983769  .00003740  00000+0  79588-3 0  9994
2 82432  74.0095  41.1747 0057033 214.9339 144.8079 14.58361465478273
UNKNOWN                 
1 82448U          25313.47362876  .00010074  00000+0  74373-3 0  9991
2 82448  85.8744 217.0877 0011099  35.1006 325.0956 15.03093578432045
UNKNOWN                 
1 82453U          25315.12178397  .00000015  00000+0  44970-3 0  9998
2 82453 102.1716 271.5187 0093633 265.7367  93.2991 12.39699742542144
UNKNOWN                 
1 82458U          25297.77306600  .00003765  00000+0  17103-2 0  9995
2 82458  66.5148 311.0021 0044906  40.7381 319.7055 14.22335814603072
UNKNOWN                 
1 82484U          25315.00997377  .00000230  00000+0  38728-3 0  9999
2 82484  99.3593 338.2628 0043788 275.7280  83.8867 13.55773748586334
UNKNOWN                 
1 82494U          25315.61213266  .00033635  00000+0  39962-2 0  9990
2 82494  74.0087  83.7467 0004910 232.4777 127.5956 14.84271520 80340
UNKNOWN                 
1 82500U          25313.61452880  .00007559  00000+0  34533-2 0  9998
2 82500  70.9661  73.9369 0118910 167.3552 193.0603 14.18084600614254
UNKNOWN                 
1 82524U          25313.08545720  .00014123  00000+0  45650-2 0  9998
2 82524  73.2821 246.2066 0135661  13.8380   1.2608 14.33981873572218
